#dP2019 12  8  0  0  0.00000000      96 __u+U ITR00 FIT  IAC
## 2083      0.00000000   900.00000000 58825 0.0000000000000
+  114   C01C02C03C04C05C06C07C08C09C10C11C12C13C14C16C19C20
+        C21C22C23C24C25C26C27C28C29C30C32C33C34C35C36C37E01
+        E02E03E04E05E07E08E09E11E12E13E14E15E18E19E21E24E25
+        E26E27E30E31E33E36G01G02G03G04G05G06G07G08G09G10G11
+        G12G13G14G15G16G17G18G19G20G21G22G23G24G25G26G27G28
+        G29G30G31G32J01J02J03J07R01R02R03R05R07R08R09R11R12
+        R13R14R15R16R17R18R19R20R21R22R23R26  0  0  0  0  0
++        13 13 13 13 13  8  8  9  8  8  7  7  8  8  8  8  8
++         7  8  8  7  7  7  8  8  7  8  8  8  8  8  8  8  5
++         4  5  4  4  5  4  4  4  4  4  4  4  4  4  4  4  4
++         5  5  4  4  5  4  3  3  3  0  3  3  3  3  3  3  3
++         3  3  3  3  3  3  4  3  3  3  3  3  4  3  3  3  3
++         3  3  3  3  8  8  8 14  6  5  5  6  6  6  5  6  6
++         6  5  5  6  5  5  6  6  5  5  5  8  0  0  0  0  0
%c M  cc GPS ccc cccc cccc cccc cccc ccccc ccccc ccccc ccccc
%c cc cc ccc ccc cccc cccc cccc cccc ccccc ccccc ccccc ccccc
%f  0.0000000  0.000000000  0.00000000000  0.000000000000000
%f  0.0000000  0.000000000  0.00000000000  0.000000000000000
%i    0    0    0    0      0      0      0      0         0
%i    0    0    0    0      0      0      0      0         0
/* INFORMATION & ANALYSIS CENTER (IAC)            RAPID DATA
/* S/V CLOCKS ARE ALIGNED TO GNSS TIME                      
/* G:C1WC2W R:C1PC2P E:C1XC5X C:C2IC6I J:C1CC2S             
/* PCV:IGS14_2080 OL/AL:FES2004  NONE     YN ORB:CoN CLK:CoN
*  2019 12 08 13 15  0.00000000
PC01 -32243.463877  27173.015372    720.424618    234.579775
PC02   4326.778776  41919.548258  -1079.231752    689.713903
PC03 -14720.522814  39481.058800   -394.179252    149.758925
PC04 -39618.281109  14472.958374    302.754875   -428.071657
PC05  21886.417155  35984.711176  -1285.360745   -204.867557
PC06 -11257.684834  36834.450533 -16343.222981    292.482397
PC07 -13288.678151  22612.205354  33180.974363    184.654979
PC08 -25721.555871  28587.568771 -17583.057210    -50.592822
PC09  -1859.387676  41899.582505  -1038.033263    172.740425
PC10   4303.606332  28626.563205  30952.764039   -441.346322
PC11  16940.716418 -10616.266457 -19377.637568    -48.203383
PC12  12389.595397  10387.295533 -22710.260007    303.155470
PC13 -10805.433176  29252.767670 -28445.875789    145.684481
PC14  19237.888439   -161.084473  20253.362482    355.865239
PC16  -9121.534652  38373.686339 -14610.178024   -945.812615
PC19 -13255.631260   9084.454736 -22797.851060    265.338090
PC20 -22013.566560  -8275.536147 -14995.587878   -389.987474
PC21  17925.516085  21307.793211  -1967.083060    123.355292
PC22   3344.977073  21514.110757 -17473.834896   -483.353447
PC23   6125.491001 -16799.396860 -21416.300433   -870.569978
PC24  26719.287517    123.969174   8001.396933   -882.668181
PC25  22849.432099 -12621.250293  -9841.766897   -440.235778
PC26  15290.211299  11208.370058  20464.944553    488.981912
PC27  -7279.885102 -19279.201674  18813.962773    238.902863
PC28   6083.207244 -26933.317428   4004.641992    229.951744
PC29 -15143.870077  19447.313855  13086.388786    156.852272
PC30 -16339.225770    -25.928601  22625.061804    236.823250
PC32 -18056.870919 -21180.948964   1992.124832   -857.738086
PC33  13311.443867  -9088.815741  22778.761329   -648.001038
PC34  16466.481342   -353.303520 -22528.379548   -294.809560
PC35  -5245.486321  27117.008610  -3874.606308   -636.243760
PC36 -23253.393417  12013.958076   9705.083660   -880.545470
PC37 -14515.950123 -11810.914883 -20684.264741   -868.034223
PE01  -9644.718816  14309.777597  24055.757026   -748.091957
PE02   9544.375531 -14337.184654 -24066.203598     97.291858
PE03   4058.401714 -24364.919947  16293.310494   -241.592252
PE04   9980.473302  27853.350726    874.538466   -421.144050
PE05  15872.446061  -6564.232622  24100.535981   -424.581755
PE07 -18337.204386 -14958.538398 -17777.352468   -309.900021
PE08 -10293.467679 -27725.799686  -1061.682692   6252.134505
PE09  18353.456402  14822.418308  17883.787517   6227.948257
PE11  17406.877994   3786.565882 -23640.973709    278.525702
PE12   1281.642551  20264.801040 -21526.798609   6061.643893
PE13 -17243.898817  -3866.143432  23756.655019    396.167159
PE14  17852.724497 -15373.216977 -20943.707930   -822.973958
PE15  -1574.052517 -20065.163261  21714.385401    885.097657
PE18  -8744.179955  22128.749266   9036.954205   -918.610643
PE19  -5461.147917  22996.139682 -17821.635990     -2.535817
PE21 -26268.900416   3629.888460  13157.161460   -570.207310
PE24  27506.207578   9418.330464   5489.701576   5726.761008
PE25  26316.956205  -3555.875891 -13061.932218   -497.885243
PE26 -22991.642984  14593.722349  11624.730918   3787.477001
PE27 -27565.053263  -9273.316840  -5523.936312    329.376642
PE30 -12516.423428 -16813.517126 -20908.542292   4322.135558
PE31  12659.825017  16698.182920  20917.861042   -470.835599
PE33 -15067.686613  24522.080096  -6908.037903   -471.571769
PE36  22825.455933 -14637.088587 -11856.405020    626.925737
PG01  -7510.818429  18359.252080 -17703.875176   -222.983029
PG02  21945.287989 -14787.051617   -674.795203   -362.296791
PG03   4639.783489  17800.274250 -19250.397268    -49.357995
PG04      0.000000      0.000000      0.000000 999999.999999
PG05  16148.819589  -7473.649998  19638.569006     -4.430562
PG06  22882.523704  -3714.902402 -12941.118375   -147.463692
PG07  10050.403950  11983.007149  21780.252582   -165.539320
PG08  -6428.448978  23387.724950  10586.690061    -16.035233
PG09   7489.985817  23689.421246   9318.244991   -103.020625
PG10 -24092.897088 -11183.418833  -2493.367486   -164.453131
PG11  -5006.205440  23946.197186 -11219.092328   -425.379481
PG12   1091.621707 -16227.367301 -21252.501273    175.382185
PG13  12741.197766 -16937.848016  15836.668218    -27.965400
PG14 -15099.079808   3221.545034 -21267.211609    -46.038168
PG15   4055.233450 -24232.785938   9276.559001   -267.147603
PG16 -17622.605104   3873.746754  19449.637128   -100.937595
PG17  13430.864488   9000.990161 -20661.921788    177.061646
PG18 -14271.865040  19476.999492 -11459.264227    105.339990
PG19  14881.416093    557.268320 -22285.996891   -229.140484
PG20 -20747.318627 -14607.191403   8085.226961    527.618958
PG21 -13051.412099  -9791.038119  21722.502719    -74.051816
PG22  -3539.340992  15608.761785 -20986.755820   -776.426484
PG23   1652.785059  26293.605249    719.431876   -150.830303
PG24   8537.509970 -19708.744745 -15569.351846     -5.936889
PG25 -13564.862975 -18433.923513 -13916.422881    -17.407628
PG26 -23376.363765  -1752.615263  12663.404474    101.219460
PG27 -12265.895332  14021.271762  18689.797500   -144.076598
PG28  22838.285606  12892.776751  -3125.059229    751.605341
PG29  -4788.406795 -24528.414053   8930.639810     23.900848
PG30  19556.492411   3903.086522  17667.096105   -101.276060
PG31 -24044.755923   5053.817984 -10684.091427     -8.418853
PG32 -14757.125686  -7898.350332 -20591.395998    149.224630
PJ01 -21855.813348  19447.563380 -25784.860154   -328.629305
PJ02 -29837.894740  23602.062167  22948.167175     -0.257901
PJ03 -28231.132296  27133.403185  20641.861689     -8.756001
PJ07 -25396.852785  33661.052389     12.603779     -0.029625
PR01  13229.827209   1017.884378  21780.655116     53.814154
PR02   -161.976151 -17221.467030  18870.931671    401.449788
PR03 -11662.947489 -22344.793665   4118.986402      6.134660
PR05 -11761.618315   1232.661286 -22601.808618     40.844944
PR07  11932.367854  22245.454810  -3481.360132    -30.453077
PR08  16420.055642  14661.717297  12918.616124     13.930551
PR09  -7184.100931  10958.409352  21888.889088    105.185201
PR11  23540.040555   3586.079818   9223.465307     17.359122
PR12  23957.376564  -4428.849172  -7483.263886     86.098130
PR13  10325.535626 -10389.005083 -20896.439711    -31.993966
PR14  -9009.589558 -10037.056097 -21633.728846     45.853427
PR15 -23120.849820  -3960.563208 -10004.257816    105.100054
PR16 -23818.652341   5070.146277   7780.914849     -0.327997
PR17   1354.910785 -18950.510099  17011.647209    282.145584
PR18  -9236.593800  -5000.288901  23264.562760     17.255009
PR19 -15190.406587  11147.491130  17204.710634    -67.884701
PR20 -12367.873508  22275.213514   -692.754056   -398.301105
PR21   -940.291093  18495.805459 -17551.542457    -90.302155
PR22  10756.024506   1889.171062 -23050.691128     -4.628407
PR23  15215.067038 -16292.678937 -12396.070527    271.855858
PR26 -13335.402256  21529.725263   3200.051626     14.106472
EOF
